start=new Date('2022-09-04T00:00:00.000Z').valueOf();
sats=[{"REF_FRAME":"TEME","FILE":"3556957","BSTAR":"-0.00103650000000","TIME_SYSTEM":"UTC","MEAN_ELEMENT_THEORY":"SGP4","MEAN_ANOMALY":"5.6829","TLE_LINE2":"2 51884  53.2167 357.7092 0001509  53.7113   5.6829 15.08861807  1308","COUNTRY_CODE":"US","GP_ID":"211672338","ECCENTRICITY":"0.00015090","NORAD_CAT_ID":"51884","EPHEMERIS_TYPE":"0","REV_AT_EPOCH":"130","INCLINATION":"53.2167","ELEMENT_SET_NO":"999","SEMIMAJOR_AXIS":"6917.814","MEAN_MOTION_DOT":"-0.00016756","ARG_OF_PERICENTER":"53.7113","CENTER_NAME":"EARTH","EPOCH":"2022-09-03T22:00:00.999936","MEAN_MOTION_DDOT":"0.0000000000000","OBJECT_TYPE":"PAYLOAD","DECAY_DATE":null,"SITE":"AFETR","RCS_SIZE":"LARGE","TLE_LINE1":"1 51884U 22022AJ  22246.91667824 -.00016756  00000-0 -10365-2 0  9997","PERIOD":"95.436","RA_OF_ASC_NODE":"357.7092","PERIAPSIS":"538.635","APOAPSIS":"540.723","CLASSIFICATION_TYPE":"U","OBJECT_ID":"2022-022AJ","OBJECT_NAME":"STARLINK-3577","MEAN_MOTION":"15.08861807","LAUNCH_DATE":"2022-03-03"},{"MEAN_ELEMENT_THEORY":"SGP4","MEAN_ANOMALY":"77.7767","TIME_SYSTEM":"UTC","FILE":"3556957","BSTAR":"-0.00351410000000","REF_FRAME":"TEME","ECCENTRICITY":"0.00013250","GP_ID":"211672589","COUNTRY_CODE":"US","TLE_LINE2":"2 51885  53.2164 357.7248 0001325  61.6593  77.7767 15.08872391  1306","EPHEMERIS_TYPE":"0","NORAD_CAT_ID":"51885","ELEMENT_SET_NO":"999","INCLINATION":"53.2164","REV_AT_EPOCH":"130","EPOCH":"2022-09-03T22:00:00.999936","CENTER_NAME":"EARTH","ARG_OF_PERICENTER":"61.6593","MEAN_MOTION_DOT":"-0.00055830","SEMIMAJOR_AXIS":"6917.781","TLE_LINE1":"1 51885U 22022AK  22246.91667824 -.00055830  00000-0 -35141-2 0  9993","RCS_SIZE":"LARGE","DECAY_DATE":null,"SITE":"AFETR","OBJECT_TYPE":"PAYLOAD","MEAN_MOTION_DDOT":"0.0000000000000","PERIOD":"95.436","LAUNCH_DATE":"2022-03-03","MEAN_MOTION":"15.08872391","OBJECT_NAME":"STARLINK-3584","OBJECT_ID":"2022-022AK","CLASSIFICATION_TYPE":"U","APOAPSIS":"540.563","RA_OF_ASC_NODE":"357.7248","PERIAPSIS":"538.730"},{"ECCENTRICITY":"0.00013170","GP_ID":"211672832","COUNTRY_CODE":"US","TLE_LINE2":"2 51886  53.2172 357.7189 0001317  60.6815  38.7469 15.08845984  1301","MEAN_ANOMALY":"38.7469","MEAN_ELEMENT_THEORY":"SGP4","TIME_SYSTEM":"UTC","BSTAR":"-0.00095003000000","FILE":"3556957","REF_FRAME":"TEME","INCLINATION":"53.2172","ELEMENT_SET_NO":"999","REV_AT_EPOCH":"130","EPHEMERIS_TYPE":"0","NORAD_CAT_ID":"51886","TLE_LINE1":"1 51886U 22022AL  22246.91667824 -.00015378  00000-0 -95003-3 0  9991","RCS_SIZE":"LARGE","SITE":"AFETR","DECAY_DATE":null,"OBJECT_TYPE":"PAYLOAD","MEAN_MOTION_DDOT":"0.0000000000000","EPOCH":"2022-09-03T22:00:00.999936","CENTER_NAME":"EARTH","ARG_OF_PERICENTER":"60.6815","MEAN_MOTION_DOT":"-0.00015378","SEMIMAJOR_AXIS":"6917.862","LAUNCH_DATE":"2022-03-03","MEAN_MOTION":"15.08845984","OBJECT_NAME":"STARLINK-3565","OBJECT_ID":"2022-022AL","CLASSIFICATION_TYPE":"U","APOAPSIS":"540.638","PERIAPSIS":"538.816","RA_OF_ASC_NODE":"357.7189","PERIOD":"95.437"},{"ELEMENT_SET_NO":"999","INCLINATION":"53.2164","REV_AT_EPOCH":"130","EPHEMERIS_TYPE":"0","NORAD_CAT_ID":"51887","ECCENTRICITY":"0.00015130","COUNTRY_CODE":"US","GP_ID":"211671588","TLE_LINE2":"2 51887  53.2164 357.7236 0001513  53.9495 105.4540 15.08853826  1309","TIME_SYSTEM":"UTC","MEAN_ANOMALY":"105.4540","MEAN_ELEMENT_THEORY":"SGP4","BSTAR":"-0.00093949000000","FILE":"3556957","REF_FRAME":"TEME","MEAN_MOTION":"15.08853826","LAUNCH_DATE":"2022-03-03","APOAPSIS":"540.750","CLASSIFICATION_TYPE":"U","OBJECT_NAME":"STARLINK-3551","OBJECT_ID":"2022-022AM","PERIAPSIS":"538.656","RA_OF_ASC_NODE":"357.7236","PERIOD":"95.437","TLE_LINE1":"1 51887U 22022AM  22246.91667824 -.00015214  00000-0 -93949-3 0  9998","RCS_SIZE":"LARGE","OBJECT_TYPE":"PAYLOAD","SITE":"AFETR","DECAY_DATE":null,"MEAN_MOTION_DDOT":"0.0000000000000","EPOCH":"2022-09-03T22:00:00.999936","CENTER_NAME":"EARTH","ARG_OF_PERICENTER":"53.9495","SEMIMAJOR_AXIS":"6917.838","MEAN_MOTION_DOT":"-0.00015214"},{"TLE_LINE2":"2 51888  53.2159 357.7221 0001432  62.7066  56.7370 15.08854320  1309","GP_ID":"211671838","COUNTRY_CODE":"US","ECCENTRICITY":"0.00014320","REF_FRAME":"TEME","BSTAR":"-0.00243040000000","FILE":"3556957","MEAN_ANOMALY":"56.7370","MEAN_ELEMENT_THEORY":"SGP4","TIME_SYSTEM":"UTC","REV_AT_EPOCH":"130","ELEMENT_SET_NO":"999","INCLINATION":"53.2159","NORAD_CAT_ID":"51888","EPHEMERIS_TYPE":"0","MEAN_MOTION_DDOT":"0.0000000000000","DECAY_DATE":null,"SITE":"AFETR","OBJECT_TYPE":"PAYLOAD","TLE_LINE1":"1 51888U 22022AN  22246.91667824 -.00038775  00000-0 -24304-2 0  9994","RCS_SIZE":"LARGE","MEAN_MOTION_DOT":"-0.00038775","SEMIMAJOR_AXIS":"6917.837","ARG_OF_PERICENTER":"62.7066","CENTER_NAME":"EARTH","EPOCH":"2022-09-03T22:00:00.999936","PERIAPSIS":"538.711","RA_OF_ASC_NODE":"357.7221","OBJECT_ID":"2022-022AN","OBJECT_NAME":"STARLINK-3536","CLASSIFICATION_TYPE":"U","APOAPSIS":"540.692","LAUNCH_DATE":"2022-03-03","MEAN_MOTION":"15.08854320","PERIOD":"95.437"},{"OBJECT_TYPE":"PAYLOAD","DECAY_DATE":null,"SITE":"AFETR","MEAN_MOTION_DDOT":"0.0000000000000","RCS_SIZE":"LARGE","TLE_LINE1":"1 51889U 22022AP  22246.91667824 -.00045126  00000-0 -28340-2 0  9997","ARG_OF_PERICENTER":"59.5873","SEMIMAJOR_AXIS":"6917.838","MEAN_MOTION_DOT":"-0.00045126","EPOCH":"2022-09-03T22:00:00.999936","CENTER_NAME":"EARTH","PERIAPSIS":"538.655","RA_OF_ASC_NODE":"357.7164","MEAN_MOTION":"15.08853947","LAUNCH_DATE":"2022-03-03","APOAPSIS":"540.751","CLASSIFICATION_TYPE":"U","OBJECT_NAME":"STARLINK-3547","OBJECT_ID":"2022-022AP","PERIOD":"95.437","COUNTRY_CODE":"US","GP_ID":"211673090","TLE_LINE2":"2 51889  53.2180 357.7164 0001515  59.5873 159.8870 15.08853947  1306","ECCENTRICITY":"0.00015150","REF_FRAME":"TEME","TIME_SYSTEM":"UTC","MEAN_ELEMENT_THEORY":"SGP4","MEAN_ANOMALY":"159.8870","BSTAR":"-0.00283400000000","FILE":"3556957","REV_AT_EPOCH":"130","ELEMENT_SET_NO":"999","INCLINATION":"53.2180","NORAD_CAT_ID":"51889","EPHEMERIS_TYPE":"0"},{"TLE_LINE2":"2 51890  53.2175 357.7204 0001417  57.4869 121.9121 15.08881534  1302","COUNTRY_CODE":"US","GP_ID":"211673333","ECCENTRICITY":"0.00014170","REF_FRAME":"TEME","BSTAR":"-0.00392850000000","FILE":"3556957","TIME_SYSTEM":"UTC","MEAN_ANOMALY":"121.9121","MEAN_ELEMENT_THEORY":"SGP4","REV_AT_EPOCH":"130","INCLINATION":"53.2175","ELEMENT_SET_NO":"999","NORAD_CAT_ID":"51890","EPHEMERIS_TYPE":"0","MEAN_MOTION_DDOT":"0.0000000000000","OBJECT_TYPE":"PAYLOAD","DECAY_DATE":null,"SITE":"AFETR","RCS_SIZE":"LARGE","TLE_LINE1":"1 51890U 22022AQ  22246.91667824 -.00062339  00000-0 -39285-2 0  9994","SEMIMAJOR_AXIS":"6917.753","MEAN_MOTION_DOT":"-0.00062339","ARG_OF_PERICENTER":"57.4869","CENTER_NAME":"EARTH","EPOCH":"2022-09-03T22:00:00.999936","PERIAPSIS":"538.638","RA_OF_ASC_NODE":"357.7204","CLASSIFICATION_TYPE":"U","APOAPSIS":"540.599","OBJECT_ID":"2022-022AQ","OBJECT_NAME":"STARLINK-3519","MEAN_MOTION":"15.08881534","LAUNCH_DATE":"2022-03-03","PERIOD":"95.435"},{"ARG_OF_PERICENTER":"61.7752","SEMIMAJOR_AXIS":"6917.819","MEAN_MOTION_DOT":"-0.00018761","EPOCH":"2022-09-03T22:00:00.999936","CENTER_NAME":"EARTH","OBJECT_TYPE":"PAYLOAD","DECAY_DATE":null,"SITE":"AFETR","MEAN_MOTION_DDOT":"0.0000000000000","RCS_SIZE":"LARGE","TLE_LINE1":"1 51891U 22022AR  22246.91667824 -.00018761  00000-0 -11631-2 0  9990","PERIOD":"95.436","RA_OF_ASC_NODE":"357.7099","PERIAPSIS":"538.761","MEAN_MOTION":"15.08860202","LAUNCH_DATE":"2022-03-03","APOAPSIS":"540.606","CLASSIFICATION_TYPE":"U","OBJECT_NAME":"STARLINK-3549","OBJECT_ID":"2022-022AR","REF_FRAME":"TEME","TIME_SYSTEM":"UTC","MEAN_ANOMALY":"177.6134","MEAN_ELEMENT_THEORY":"SGP4","BSTAR":"-0.00116310000000","FILE":"3556957","COUNTRY_CODE":"US","GP_ID":"211672089","TLE_LINE2":"2 51891  53.2198 357.7099 0001333  61.7752 177.6134 15.08860202  1307","ECCENTRICITY":"0.00013330","NORAD_CAT_ID":"51891","EPHEMERIS_TYPE":"0","REV_AT_EPOCH":"130","ELEMENT_SET_NO":"999","INCLINATION":"53.2198"},{"SITE":"AFETR","DECAY_DATE":null,"OBJECT_TYPE":"PAYLOAD","MEAN_MOTION_DDOT":"0.0000000000000","TLE_LINE1":"1 51892U 22022AS  22246.91667824 -.00015759  00000-0 -97361-3 0  9990","RCS_SIZE":"LARGE","ARG_OF_PERICENTER":"59.0473","MEAN_MOTION_DOT":"-0.00015759","SEMIMAJOR_AXIS":"6917.814","EPOCH":"2022-09-03T22:00:00.999936","CENTER_NAME":"EARTH","PERIAPSIS":"538.750","RA_OF_ASC_NODE":"357.7211","LAUNCH_DATE":"2022-03-03","MEAN_MOTION":"15.08861645","OBJECT_NAME":"STARLINK-3587","OBJECT_ID":"2022-022AS","CLASSIFICATION_TYPE":"U","APOAPSIS":"540.608","PERIOD":"95.436","GP_ID":"211672339","COUNTRY_CODE":"US","TLE_LINE2":"2 51892  53.2185 357.7211 0001343  59.0473 140.3550 15.08861645  1302","ECCENTRICITY":"0.00013430","REF_FRAME":"TEME","MEAN_ANOMALY":"140.3550","MEAN_ELEMENT_THEORY":"SGP4","TIME_SYSTEM":"UTC","FILE":"3556957","BSTAR":"-0.00097361000000","REV_AT_EPOCH":"130","ELEMENT_SET_NO":"999","INCLINATION":"53.2185","NORAD_CAT_ID":"51892","EPHEMERIS_TYPE":"0"},{"PERIOD":"95.435","PERIAPSIS":"538.564","RA_OF_ASC_NODE":"357.7065","CLASSIFICATION_TYPE":"U","APOAPSIS":"540.652","OBJECT_ID":"2022-022AT","OBJECT_NAME":"STARLINK-3579","MEAN_MOTION":"15.08884876","LAUNCH_DATE":"2022-03-03","SEMIMAJOR_AXIS":"6917.743","MEAN_MOTION_DOT":"-0.00061235","ARG_OF_PERICENTER":"49.4100","CENTER_NAME":"EARTH","EPOCH":"2022-09-03T22:00:00.999936","MEAN_MOTION_DDOT":"0.0000000000000","OBJECT_TYPE":"PAYLOAD","SITE":"AFETR","DECAY_DATE":null,"TLE_LINE1":"1 51893U 22022AT  22246.91667824 -.00061235  00000-0 -38576-2 0  9993","RCS_SIZE":"LARGE","NORAD_CAT_ID":"51893","EPHEMERIS_TYPE":"0","REV_AT_EPOCH":"130","ELEMENT_SET_NO":"999","INCLINATION":"53.2197","REF_FRAME":"TEME","FILE":"3556957","BSTAR":"-0.00385760000000","TIME_SYSTEM":"UTC","MEAN_ANOMALY":"229.9941","MEAN_ELEMENT_THEORY":"SGP4","TLE_LINE2":"2 51893  53.2197 357.7065 0001509  49.4100 229.9941 15.08884876  1306","COUNTRY_CODE":"US","GP_ID":"211672590","ECCENTRICITY":"0.00015090"}];
